{"type": "FeatureCollection", "features": [ {"type": "Feature", "properties": {"norad_id": 37292, "name": "COSMOS 2251 DEB", "group": "cosmos-2251-debris", "lat": 45.51409486152876, "lon": 54.5547064892209, "alt_km": 727.0696711693599, "timestamp": "2025-12-19T16:54:44.660965+00:00", "meta": {"OBJECT_NAME": "COSMOS 2251 DEB", "OBJECT_ID": "1993-036BJG", "EPOCH": "2025-12-02T14:04:30.366912", "MEAN_MOTION": 14.03226454, "ECCENTRICITY": 0.02102512, "INCLINATION": 74.129, "RA_OF_ASC_NODE": 67.3453, "ARG_OF_PERICENTER": 73.1105, "MEAN_ANOMALY": 289.2966, "EPHEMERIS_TYPE": 0, "CLASSIFICATION_TYPE": "U", "NORAD_CAT_ID": 37292, "ELEMENT_SET_NO": 999, "REV_AT_EPOCH": 59706, "BSTAR": 0.0022453288, "MEAN_MOTION_DOT": 4.236e-05, "MEAN_MOTION_DDOT": 0}, "tle": {"line1": "1 37292U 93036BJG 25336.58646258  .00004236  00000+0  22453-2 0  9999", "line2": "2 37292  74.1290  67.3453 0210251  73.1105 289.2966 14.03226454597064"}}, "geometry": {"type": "Point", "coordinates": [54.5547064892209, 45.51409486152876]}}, {"type": "Feature", "properties": {"norad_id": 37295, "name": "COSMOS 2251 DEB", "group": "cosmos-2251-debris", "lat": 67.01421991415563, "lon": -49.259772736100516, "alt_km": 638.9999608650223, "timestamp": "2025-12-19T16:54:44.660975+00:00", "meta": {"OBJECT_NAME": "COSMOS 2251 DEB", "OBJECT_ID": "1993-036BJK", "EPOCH": "2025-12-17T18:42:01.411200", "MEAN_MOTION": 14.6526833, "ECCENTRICITY": 0.00439101, "INCLINATION": 74.007, "RA_OF_ASC_NODE": 271.9083, "ARG_OF_PERICENTER": 89.546, "MEAN_ANOMALY": 271.074, "EPHEMERIS_TYPE": 0, "CLASSIFICATION_TYPE": "U", "NORAD_CAT_ID": 37295, "ELEMENT_SET_NO": 999, "REV_AT_EPOCH": 82378, "BSTAR": 0.00042758939, "MEAN_MOTION_DOT": 2.307e-05, "MEAN_MOTION_DDOT": 0}, "tle": {"line1": "1 37295U 93036BJK 25351.77918300  .00002307  00000+0  42759-3 0  9999", "line2": "2 37295  74.0070 271.9083 0043910  89.5460 271.0740 14.65268330823782"}}, "geometry": {"type": "Point", "coordinates": [-49.259772736100516, 67.01421991415563]}}, {"type": "Feature", "properties": {"norad_id": 37305, "name": "COSMOS 2251 DEB", "group": "cosmos-2251-debris", "lat": -25.066402931746733, "lon": 105.3796493878527, "alt_km": 745.5586510882104, "timestamp": "2025-12-19T16:54:44.660986+00:00", "meta": {"OBJECT_NAME": "COSMOS 2251 DEB", "OBJECT_ID": "1993-036BJV", "EPOCH": "2025-12-13T12:50:04.816608", "MEAN_MOTION": 14.36140847, "ECCENTRICITY": 0.00500253, "INCLINATION": 73.8697, "RA_OF_ASC_NODE": 289.0409, "ARG_OF_PERICENTER": 249.3262, "MEAN_ANOMALY": 110.2523, "EPHEMERIS_TYPE": 0, "CLASSIFICATION_TYPE": "U", "NORAD_CAT_ID": 37305, "ELEMENT_SET_NO": 999, "REV_AT_EPOCH": 66878, "BSTAR": 0.00092453159, "MEAN_MOTION_DOT": 2.706e-05, "MEAN_MOTION_DDOT": 0}, "tle": {"line1": "1 37305U 93036BJV 25347.53477797  .00002706  00000+0  92453-3 0  9999", "line2": "2 37305  73.8697 289.0409 0050025 249.3262 110.2523 14.36140847668789"}}, "geometry": {"type": "Point", "coordinates": [105.3796493878527, -25.066402931746733]}}, {"type": "Feature", "properties": {"norad_id": 37312, "name": "COSMOS 2251 DEB", "group": "cosmos-2251-debris", "lat": 39.34418794299115, "lon": -2.394709503788159, "alt_km": 746.710916560557, "timestamp": "2025-12-19T16:54:44.660997+00:00", "meta": {"OBJECT_NAME": "COSMOS 2251 DEB", "OBJECT_ID": "1993-036BKC", "EPOCH": "2025-12-15T07:40:32.314080", "MEAN_MOTION": 14.46134941, "ECCENTRICITY": 0.00183905, "INCLINATION": 74.0308, "RA_OF_ASC_NODE": 199.364, "ARG_OF_PERICENTER": 302.4306, "MEAN_ANOMALY": 57.5073, "EPHEMERIS_TYPE": 0, "CLASSIFICATION_TYPE": "U", "NORAD_CAT_ID": 37312, "ELEMENT_SET_NO": 999, "REV_AT_EPOCH": 86201, "BSTAR": 0.00037323494, "MEAN_MOTION_DOT": 1.309e-05, "MEAN_MOTION_DDOT": 0}, "tle": {"line1": "1 37312U 93036BKC 25349.31981845  .00001309  00000+0  37323-3 0  9992", "line2": "2 37312  74.0308 199.3640 0018390 302.4306  57.5073 14.46134941862012"}}, "geometry": {"type": "Point", "coordinates": [-2.394709503788159, 39.34418794299115]}}, {"type": "Feature", "properties": {"norad_id": 37316, "name": "COSMOS 2251 DEB", "group": "cosmos-2251-debris", "lat": 62.52992173719737, "lon": 153.56913680396005, "alt_km": 561.0151773865764, "timestamp": "2025-12-19T16:54:44.661007+00:00", "meta": {"OBJECT_NAME": "COSMOS 2251 DEB", "OBJECT_ID": "1993-036BKG", "EPOCH": "2025-12-18T11:29:58.442496", "MEAN_MOTION": 14.94726133, "ECCENTRICITY": 0.00293495, "INCLINATION": 74.0196, "RA_OF_ASC_NODE": 9.4903, "ARG_OF_PERICENTER": 75.1338, "MEAN_ANOMALY": 285.3093, "EPHEMERIS_TYPE": 0, "CLASSIFICATION_TYPE": "U", "NORAD_CAT_ID": 37316, "ELEMENT_SET_NO": 999, "REV_AT_EPOCH": 86229, "BSTAR": 0.0018370808, "MEAN_MOTION_DOT": 0.00020143, "MEAN_MOTION_DDOT": 0}, "tle": {"line1": "1 37316U 93036BKG 25352.47914864  .00020143  00000+0  18371-2 0  9992", "line2": "2 37316  74.0196   9.4903 0029349  75.1338 285.3093 14.94726133862295"}}, "geometry": {"type": "Point", "coordinates": [153.56913680396005, 62.52992173719737]}}, {"type": "Feature", "properties": {"norad_id": 37320, "name": "COSMOS 2251 DEB", "group": "cosmos-2251-debris", "lat": -29.003191074297064, "lon": 33.603750009103656, "alt_km": 632.5080734313788, "timestamp": "2025-12-19T16:54:44.661017+00:00", "meta": {"OBJECT_NAME": "COSMOS 2251 DEB", "OBJECT_ID": "1993-036BKL", "EPOCH": "2025-12-18T07:29:21.246144", "MEAN_MOTION": 14.788451, "ECCENTRICITY": 0.00469492, "INCLINATION": 74.045, "RA_OF_ASC_NODE": 207.2135, "ARG_OF_PERICENTER": 293.0876, "MEAN_ANOMALY": 66.5354, "EPHEMERIS_TYPE": 0, "CLASSIFICATION_TYPE": "U", "NORAD_CAT_ID": 37320, "ELEMENT_SET_NO": 999, "REV_AT_EPOCH": 66229, "BSTAR": 0.00065191726, "MEAN_MOTION_DOT": 4.856e-05, "MEAN_MOTION_DDOT": 0}, "tle": {"line1": "1 37320U 93036BKL 25352.31205146  .00004856  00000+0  65192-3 0  9993", "line2": "2 37320  74.0450 207.2135 0046949 293.0876  66.5354 14.78845100662296"}}, "geometry": {"type": "Point", "coordinates": [33.603750009103656, -29.003191074297064]}}, {"type": "Feature", "properties": {"norad_id": 37326, "name": "COSMOS 2251 DEB", "group": "cosmos-2251-debris", "lat": -14.896637787192105, "lon": -43.011050699513994, "alt_km": 701.3285335825849, "timestamp": "2025-12-19T16:54:44.661028+00:00", "meta": {"OBJECT_NAME": "COSMOS 2251 DEB", "OBJECT_ID": "1993-036BKS", "EPOCH": "2025-12-18T14:41:59.918784", "MEAN_MOTION": 14.6160351, "ECCENTRICITY": 0.00547059, "INCLINATION": 74.0257, "RA_OF_ASC_NODE": 323.4491, "ARG_OF_PERICENTER": 90.7075, "MEAN_ANOMALY": 270.0361, "EPHEMERIS_TYPE": 0, "CLASSIFICATION_TYPE": "U", "NORAD_CAT_ID": 37326, "ELEMENT_SET_NO": 999, "REV_AT_EPOCH": 85569, "BSTAR": 0.00040097011, "MEAN_MOTION_DOT": 2.005e-05, "MEAN_MOTION_DDOT": 0}, "tle": {"line1": "1 37326U 93036BKS 25352.61249906  .00002005  00000+0  40097-3 0  9995", "line2": "2 37326  74.0257 323.4491 0054705  90.7075 270.0361 14.61603510855692"}}, "geometry": {"type": "Point", "coordinates": [-43.011050699513994, -14.896637787192105]}}, {"type": "Feature", "properties": {"norad_id": 37330, "name": "COSMOS 2251 DEB", "group": "cosmos-2251-debris", "lat": -63.946809547987655, "lon": -114.09870619918807, "alt_km": 739.7755585122331, "timestamp": "2025-12-19T16:54:44.661039+00:00", "meta": {"OBJECT_NAME": "COSMOS 2251 DEB", "OBJECT_ID": "1993-036BKW", "EPOCH": "2025-12-19T04:04:18.721632", "MEAN_MOTION": 14.59556855, "ECCENTRICITY": 0.00568213, "INCLINATION": 74.0177, "RA_OF_ASC_NODE": 282.8126, "ARG_OF_PERICENTER": 129.5084, "MEAN_ANOMALY": 231.1126, "EPHEMERIS_TYPE": 0, "CLASSIFICATION_TYPE": "U", "NORAD_CAT_ID": 37330, "ELEMENT_SET_NO": 999, "REV_AT_EPOCH": 86462, "BSTAR": 0.00021895794, "MEAN_MOTION_DOT": 1.033e-05, "MEAN_MOTION_DDOT": 0}, "tle": {"line1": "1 37330U 93036BKW 25353.16966113  .00001033  00000+0  21896-3 0  9993", "line2": "2 37330  74.0177 282.8126 0056821 129.5084 231.1126 14.59556855864629"}}, "geometry": {"type": "Point", "coordinates": [-114.09870619918807, -63.946809547987655]}}, {"type": "Feature", "properties": {"norad_id": 37331, "name": "COSMOS 2251 DEB", "group": "cosmos-2251-debris", "lat": 19.465832741148812, "lon": -130.65762977592587, "alt_km": 776.0195902360892, "timestamp": "2025-12-19T16:54:44.661049+00:00", "meta": {"OBJECT_NAME": "COSMOS 2251 DEB", "OBJECT_ID": "1993-036BKX", "EPOCH": "2025-12-16T21:15:09.521568", "MEAN_MOTION": 14.35033598, "ECCENTRICITY": 0.00552693, "INCLINATION": 74.0751, "RA_OF_ASC_NODE": 60.2873, "ARG_OF_PERICENTER": 73.2754, "MEAN_ANOMALY": 287.4454, "EPHEMERIS_TYPE": 0, "CLASSIFICATION_TYPE": "U", "NORAD_CAT_ID": 37331, "ELEMENT_SET_NO": 999, "REV_AT_EPOCH": 84819, "BSTAR": 0.00035206854, "MEAN_MOTION_DOT": 9.96e-06, "MEAN_MOTION_DDOT": 0}, "tle": {"line1": "1 37331U 93036BKX 25350.88552687  .00000996  00000+0  35207-3 0  9995", "line2": "2 37331  74.0751  60.2873 0055269  73.2754 287.4454 14.35033598848199"}}, "geometry": {"type": "Point", "coordinates": [-130.65762977592587, 19.465832741148812]}}, {"type": "Feature", "properties": {"norad_id": 37336, "name": "COSMOS 2251 DEB", "group": "cosmos-2251-debris", "lat": 72.53107348946315, "lon": 23.902945269879773, "alt_km": 761.4145111833413, "timestamp": "2025-12-19T16:54:44.661060+00:00", "meta": {"OBJECT_NAME": "COSMOS 2251 DEB", "OBJECT_ID": "1993-036BLC", "EPOCH": "2025-12-17T07:33:13.175712", "MEAN_MOTION": 14.32760586, "ECCENTRICITY": 0.00290162, "INCLINATION": 74.0414, "RA_OF_ASC_NODE": 322.8603, "ARG_OF_PERICENTER": 39.1846, "MEAN_ANOMALY": 321.1399, "EPHEMERIS_TYPE": 0, "CLASSIFICATION_TYPE": "U", "NORAD_CAT_ID": 37336, "ELEMENT_SET_NO": 999, "REV_AT_EPOCH": 65185, "BSTAR": 6.9199726e-05, "MEAN_MOTION_DOT": 1.63e-06, "MEAN_MOTION_DDOT": 0}, "tle": {"line1": "1 37336U 93036BLC 25351.31473583  .00000163  00000+0  69200-4 0  9993", "line2": "2 37336  74.0414 322.8603 0029016  39.1846 321.1399 14.32760586651852"}}, "geometry": {"type": "Point", "coordinates": [23.902945269879773, 72.53107348946315]}}]}